EUTELSAT 8 WEST B       
1 40875U 15039B   25244.59448509 -.00000063  00000+0  00000+0 0  9991
2 40875   0.0681 339.2826 0003717 178.0917  29.6332  1.00270091 36762
EUTELSAT 9B             
1 41310U 16005A   25244.31243769  .00000065  00000+0  00000+0 0  9992
2 41310   0.0452  72.8000 0001820 117.4770 271.9162  1.00273641 35221
EUTELSAT 65 WEST A      
1 41382U 16014A   25244.44053428 -.00000274  00000+0  00000+0 0  9999
2 41382   0.0554  12.5343 0002318 142.0289 279.7005  1.00272449 34637
EUTELSAT 117 WEST B     
1 41589U 16038B   25244.57299166 -.00000009  00000+0  00000+0 0  9995
2 41589   0.0088 326.4656 0000172 291.3424 172.4442  1.00271010 33767
EUTELSAT 172B           
1 42741U 17029B   25244.35114113 -.00000002  00000+0  00000+0 0  9994
2 42741   0.0169 165.4805 0000432 271.4978 202.2111  1.00273167 30832
EUTELSAT 7C             
1 44334U 19034B   25244.59760510  .00000051  00000+0  00000+0 0  9999
2 44334   0.0720 185.9675 0003283 318.2530  58.9121  1.00271363  3943
EUTELSAT 5 WEST B       
1 44624U 19067A   25244.59509176 -.00000039  00000+0  00000+0 0  9993
2 44624   0.1054 304.9793 0003189 215.3435  29.8957  1.00272714 21547
EUTELSAT KONNECT        
1 45027U 20005B   25244.31209102  .00000052  00000+0  00000+0 0  9995
2 45027   0.0649 100.1444 0001478  68.4692 291.6537  1.00269703 21439
